{
  "norad_id": 68392,
  "name": "STARLINK-37215",
  "history": [
    {
      "epoch": "2026-04-02T18:00:01.999296Z",
      "apogee_km": 276.5450480071968,
      "perigee_km": 274.56490927435334,
      "latitude_deg": 9.725076063883792,
      "longitude_deg": -46.3037839104959,
      "height_km": 277.99587029924635,
      "semi_major_axis_km": 6653.691978640774,
      "eccentricity": 0.0001488,
      "inclination_deg": 97.282,
      "raan_deg": 233.551,
      "arg_perigee_deg": 81.0804,
      "mean_anomaly_deg": 89.0356,
      "mean_motion_rev_day": 15.9959016
    }
  ]
}